NORAD_CAT_ID,OBJECT_NAME,OBJECT_TYPE,EPOCH,MEAN_MOTION,ECCENTRICITY,INCLINATION,RA_OF_ASC_NODE,ARG_OF_PERICENTER,MEAN_ANOMALY,BSTAR,MEAN_MOTION_DOT,MEAN_MOTION_DDOT,TLE_LINE0,TLE_LINE1,TLE_LINE2,SEMIMAJOR_AXIS,PERIOD,APOGEE,PERIGEE,DECAYED
51883.0,STARLINK-3576,PAYLOAD,2023-09-09 09:27:11,15.08834608,0.0001542,53.2176,134.7573,82.066,278.0507,0.00010382,1.364e-05,0.0,0 STARLINK-3576,1 51883U 22022AH  23252.39388505  .00001364  00000-0  10382-3 0  9999,2 51883  53.2176 134.7573 0001542  82.0660 278.0507 15.08834608 85516,6917.897,95.438,540.829,538.695,0.0
51883.0,STARLINK-3576,PAYLOAD,2023-09-10 01:21:02,15.08845083,0.0001359,53.217,131.784,87.0186,273.0962,4.7345e-05,4.66e-06,0.0,0 STARLINK-3576,1 51883U 22022AH  23253.05628076  .00000466  00000-0  47345-4 0  9995,2 51883  53.2170 131.7840 0001359  87.0186 273.0962 15.08845083 85618,6917.865,95.437,540.67,538.79,0.0
51883.0,STARLINK-3576,PAYLOAD,2023-09-11 01:11:50,15.08839973,0.0001224,53.2161,127.3229,95.1955,264.9177,2.7694e-05,1.53e-06,0.0,0 STARLINK-3576,1 51883U 22022AH  23254.04988462  .00000153  00000-0  27694-4 0  9991,2 51883  53.2161 127.3229 0001224  95.1955 264.9177 15.08839973 85769,6917.88,95.438,540.592,538.899,0.0
51883.0,STARLINK-3576,PAYLOAD,2023-09-11 09:08:45,15.08841292,0.0001222,53.2161,125.8361,95.4944,264.6188,4.3077e-05,3.98e-06,0.0,0 STARLINK-3576,1 51883U 22022AH  23254.38108311  .00000398  00000-0  43077-4 0  9999,2 51883  53.2161 125.8361 0001222  95.4944 264.6188 15.08841292 85810,6917.876,95.437,540.587,538.896,0.0
51883.0,STARLINK-3576,PAYLOAD,2023-09-12 01:02:36,15.08835186,0.0001382,53.217,122.862,98.5671,261.5478,0.00014685,2.05e-05,0.0,0 STARLINK-3576,1 51883U 22022AH  23255.04348323  .00002050  00000-0  14685-3 0  9991,2 51883  53.2170 122.8620 0001382  98.5671 261.5478 15.08835186 85917,6917.895,95.438,540.716,538.804,0.0
51883.0,STARLINK-3576,PAYLOAD,2023-09-12 18:31:51,15.08843821,0.0001273,53.2169,119.5912,95.8188,264.2949,5.5123e-05,5.9e-06,0.0,0 STARLINK-3576,1 51883U 22022AH  23255.77211977  .00000590  00000-0  55123-4 0  9995,2 51883  53.2169 119.5912 0001273  95.8188 264.2949 15.08843821 86025,6917.869,95.437,540.614,538.853,0.0
51883.0,STARLINK-3576,PAYLOAD,2023-09-12 20:07:15,15.08831545,0.0001308,53.2163,119.2924,100.6632,259.4508,-1.497e-05,-5.26e-06,0.0,0 STARLINK-3576,1 51883U 22022AH  23255.83837408 -.00000526  00000-0 -14970-4 0  9991,2 51883  53.2163 119.2924 0001308 100.6632 259.4508 15.08831545 86035,6917.906,95.438,540.676,538.866,0.0
51883.0,STARLINK-3576,PAYLOAD,2023-09-12 21:42:38,15.08833533,0.0001331,53.2166,118.9946,102.3425,257.7716,2.7738e-06,-2.44e-06,0.0,0 STARLINK-3576,1 51883U 22022AH  23255.90461252 -.00000244  00000-0  27738-5 0  9992,2 51883  53.2166 118.9946 0001331 102.3425 257.7716 15.08833533 86045,6917.9,95.438,540.686,538.844,0.0
51883.0,STARLINK-3576,PAYLOAD,2023-09-13 18:22:38,15.088495,0.0001152,53.2155,115.1283,101.7218,258.3903,0.00011496,1.543e-05,0.0,0 STARLINK-3576,1 51883U 22022AH  23256.76571797  .00001543  00000-0  11496-3 0  9997,2 51883  53.2155 115.1283 0001152 101.7218 258.3903 15.08849500 86170,6917.851,95.437,540.513,538.919,0.0
51883.0,STARLINK-3576,PAYLOAD,2023-09-13 21:33:23,15.08855559,0.0001212,53.2165,114.5366,93.2282,266.8848,0.00016324,2.312e-05,0.0,0 STARLINK-3576,1 51883U 22022AH  23256.89819300  .00002312  00000-0  16324-3 0  9996,2 51883  53.2165 114.5366 0001212  93.2282 266.8848 15.08855559 86194,6917.833,95.437,540.536,538.859,0.0
51883.0,STARLINK-3576,PAYLOAD,2023-09-14 00:44:09,15.08859168,0.0001142,53.2165,113.9419,90.7172,269.3951,0.00015373,2.161e-05,0.0,0 STARLINK-3576,1 51883U 22022AH  23257.03067048  .00002161  00000-0  15373-3 0  9992,2 51883  53.2165 113.9419 0001142  90.7172 269.3951 15.08859168 86214,6917.822,95.436,540.477,538.897,0.0
51883.0,STARLINK-3576,PAYLOAD,2023-09-14 21:24:13,15.08829373,0.0001235,53.2165,110.0778,94.6471,265.4663,-2.9181e-05,-7.52e-06,0.0,0 STARLINK-3576,1 51883U 22022AH  23257.89181924 -.00000752  00000-0 -29181-4 0  9995,2 51883  53.2165 110.0778 0001235  94.6471 265.4663 15.08829373 86344,6917.913,95.438,540.632,538.924,0.0
51883.0,STARLINK-3576,PAYLOAD,2023-09-15 13:18:03,15.08841582,0.0001271,53.2158,107.1018,81.721,278.3926,-0.00012176,-2.225e-05,0.0,0 STARLINK-3576,1 51883U 22022AH  23258.55420899 -.00002225  00000-0 -12176-3 0  9998,2 51883  53.2158 107.1018 0001271  81.7210 278.3926 15.08841582 86440,6917.876,95.437,540.62,538.861,0.0
51883.0,STARLINK-3576,PAYLOAD,2023-09-15 18:04:12,15.08851665,0.0001237,53.2166,106.2103,86.7897,273.3236,1.2179e-05,-9.4e-07,0.0,0 STARLINK-3576,1 51883U 22022AH  23258.75292603 -.00000094  00000-0  12179-4 0  9995,2 51883  53.2166 106.2103 0001237  86.7897 273.3236 15.08851665 86477,6917.845,95.437,540.565,538.854,0.0
51883.0,STARLINK-3576,PAYLOAD,2023-09-16 00:25:44,15.08855464,0.0001306,53.2156,105.0208,85.6636,274.4506,0.00017425,2.488e-05,0.0,0 STARLINK-3576,1 51883U 22022AH  23259.01788108  .00002488  00000-0  17425-3 0  9991,2 51883  53.2156 105.0208 0001306  85.6636 274.4506 15.08855464 86513,6917.833,95.437,540.602,538.795,0.0
51883.0,STARLINK-3576,PAYLOAD,2023-09-16 17:55:00,15.08839508,0.0001356,53.2151,101.7496,81.6986,278.4159,0.00017989,2.576e-05,0.0,0 STARLINK-3576,1 51883U 22022AH  23259.74653155  .00002576  00000-0  17989-3 0  9997,2 51883  53.2151 101.7496 0001356  81.6986 278.4159 15.08839508 86620,6917.882,95.438,540.685,538.809,0.0
51883.0,STARLINK-3576,PAYLOAD,2023-09-16 21:05:46,15.08847497,0.0001299,53.2151,101.1555,90.3369,269.7771,0.00032158,4.835e-05,0.0,0 STARLINK-3576,1 51883U 22022AH  23259.87900899  .00004835  00000-0  32158-3 0  9996,2 51883  53.2151 101.1555 0001299  90.3369 269.7771 15.08847497 86649,6917.857,95.437,540.621,538.824,0.0
51883.0,STARLINK-3576,PAYLOAD,2023-09-17 12:59:37,15.08843817,0.0001474,53.2145,98.1805,74.2854,285.83,0.00032854,4.945e-05,0.0,0 STARLINK-3576,1 51883U 22022AH  23260.54141169  .00004945  00000-0  32854-3 0  9994,2 51883  53.2145  98.1805 0001474  74.2854 285.8300 15.08843817 86740,6917.869,95.437,540.753,538.714,0.0
51883.0,STARLINK-3576,PAYLOAD,2023-09-17 19:21:10,15.0884913,0.0001274,53.2144,96.9908,85.8857,274.228,0.00022097,3.231e-05,0.0,0 STARLINK-3576,1 51883U 22022AH  23260.80636797  .00003231  00000-0  22097-3 0  9994,2 51883  53.2144  96.9908 0001274  85.8857 274.2280 15.08849130 86785,6917.852,95.437,540.599,538.836,0.0
51883.0,STARLINK-3576,PAYLOAD,2023-09-17 20:56:33,15.08849324,0.0001355,53.2152,96.6951,84.7527,275.3619,0.00025919,3.841e-05,0.0,0 STARLINK-3576,1 51883U 22022AH  23260.87260880  .00003841  00000-0  25919-3 0  9990,2 51883  53.2152  96.6951 0001355  84.7527 275.3619 15.08849324 86795,6917.852,95.437,540.654,538.78,0.0
51883.0,STARLINK-3576,PAYLOAD,2023-09-18 17:36:34,15.08842158,0.000141,53.2155,92.8304,84.572,275.5433,0.00016788,2.385e-05,0.0,0 STARLINK-3576,1 51883U 22022AH  23261.73373227  .00002385  00000-0  16788-3 0  9992,2 51883  53.2155  92.8304 0001410  84.5720 275.5433 15.08842158 86922,6917.874,95.437,540.714,538.763,0.0
51883.0,STARLINK-3576,PAYLOAD,2023-09-18 19:11:57,15.08845617,0.0001361,53.2159,92.5321,91.4049,268.7099,0.00021752,3.176e-05,0.0,0 STARLINK-3576,1 51883U 22022AH  23261.79997048  .00003176  00000-0  21752-3 0  9997,2 51883  53.2159  92.5321 0001361  91.4049 268.7099 15.08845617 86934,6917.863,95.437,540.67,538.787,0.0
51883.0,STARLINK-3576,PAYLOAD,2023-09-19 19:02:44,15.0884611,0.0001304,53.2151,88.0706,90.0489,270.0652,0.00017391,2.481e-05,0.0,0 STARLINK-3576,1 51883U 22022AH  23262.79356888  .00002481  00000-0  17391-3 0  9991,2 51883  53.2151  88.0706 0001304  90.0489 270.0652 15.08846110 87080,6917.862,95.437,540.629,538.825,0.0
51883.0,STARLINK-3576,PAYLOAD,2023-09-19 22:13:30,15.08852018,0.0001331,53.216,87.4756,86.2751,273.8393,0.00027026,4.017e-05,0.0,0 STARLINK-3576,1 51883U 22022AH  23262.92604560  .00004017  00000-0  27026-3 0  9992,2 51883  53.2160  87.4756 0001331  86.2751 273.8393 15.08852018 87107,6917.844,95.437,540.629,538.788,0.0
51883.0,STARLINK-3576,PAYLOAD,2023-09-20 18:53:32,15.08832799,0.0001337,53.2159,83.6091,93.418,266.6965,-3.969e-05,-9.19e-06,0.0,0 STARLINK-3576,1 51883U 22022AH  23263.78717596 -.00000919  00000-0 -39690-4 0  9991,2 51883  53.2159  83.6091 0001337  93.4180 266.6965 15.08832799 87230,6917.902,95.438,540.692,538.842,0.0
51883.0,STARLINK-3576,PAYLOAD,2023-09-20 22:04:18,15.08833889,0.0001357,53.2162,83.0147,94.6231,265.4916,-7.2613e-06,-4.03e-06,0.0,0 STARLINK-3576,1 51883U 22022AH  23263.91965709 -.00000403  00000-0 -72613-5 0  9998,2 51883  53.2162  83.0147 0001357  94.6231 265.4916 15.08833889 87258,6917.899,95.438,540.703,538.825,0.0
51883.0,STARLINK-3576,PAYLOAD,2023-09-21 12:22:46,15.08838504,0.000132,53.2164,80.3391,91.9226,268.1917,5.3293e-05,5.6e-06,0.0,0 STARLINK-3576,1 51883U 22022AH  23264.51581698  .00000560  00000-0  53293-4 0  9990,2 51883  53.2164  80.3391 0001320  91.9226 268.1917 15.08838504 87345,6917.885,95.438,540.663,538.837,0.0
51883.0,STARLINK-3576,PAYLOAD,2023-09-21 18:44:18,15.08844906,0.0001305,53.2163,79.1503,90.9627,269.1515,0.00014643,2.044e-05,0.0,0 STARLINK-3576,1 51883U 22022AH  23264.78077427  .00002044  00000-0  14643-3 0  9993,2 51883  53.2163  79.1503 0001305  90.9627 269.1515 15.08844906 87384,6917.865,95.437,540.633,538.828,0.0
51883.0,STARLINK-3576,PAYLOAD,2023-09-22 04:16:37,15.08854805,0.0001331,53.2169,77.3657,91.6037,268.5107,0.00039694,6.038e-05,0.0,0 STARLINK-3576,1 51883U 22022AH  23265.17821022  .00006038  00000-0  39694-3 0  9995,2 51883  53.2169  77.3657 0001331  91.6037 268.5107 15.08854805 87448,6917.835,95.437,540.621,538.779,0.0
51883.0,STARLINK-3576,PAYLOAD,2023-09-22 18:35:04,15.08876086,0.00013,53.217,74.6893,90.8463,269.2678,0.00075114,0.00011698,0.0,0 STARLINK-3576,1 51883U 22022AH  23265.77435936  .00011698  00000-0  75114-3 0  9991,2 51883  53.2170  74.6893 0001300  90.8463 269.2678 15.08876086 87538,6917.77,95.435,540.534,538.736,0.0
